[{"OBJECT_NAME":"SL-14 R/B","OBJECT_ID":"1986-006B","EPOCH":"2026-04-25T07:01:25.181184","MEAN_MOTION":14.86890644,"ECCENTRICITY":0.00778243,"INCLINATION":82.5292,"RA_OF_ASC_NODE":215.8787,"ARG_OF_PERICENTER":117.7551,"MEAN_ANOMALY":243.1586,"EPHEMERIS_TYPE":0,"CLASSIFICATION_TYPE":"U","NORAD_CAT_ID":16496,"ELEMENT_SET_NO":999,"REV_AT_EPOCH":15613,"BSTAR":6.9984103e-5,"MEAN_MOTION_DOT":6.89e-6,"MEAN_MOTION_DDOT":0},{"OBJECT_NAME":"COSMOS 1743","OBJECT_ID":"1986-034A","EPOCH":"2026-04-25T04:39:14.096160","MEAN_MOTION":15.62564213,"ECCENTRICITY":0.00075452,"INCLINATION":82.5325,"RA_OF_ASC_NODE":24.8759,"ARG_OF_PERICENTER":105.3576,"MEAN_ANOMALY":254.8517,"EPHEMERIS_TYPE":0,"CLASSIFICATION_TYPE":"U","NORAD_CAT_ID":16719,"ELEMENT_SET_NO":999,"REV_AT_EPOCH":18750,"BSTAR":0.00056614723,"MEAN_MOTION_DOT":0.00050761,"MEAN_MOTION_DDOT":0},{"OBJECT_NAME":"SL-14 R/B","OBJECT_ID":"1986-046B","EPOCH":"2026-04-25T05:08:29.586912","MEAN_MOTION":14.85633831,"ECCENTRICITY":0.00246469,"INCLINATION":82.4844,"RA_OF_ASC_NODE":36.2227,"ARG_OF_PERICENTER":75.1948,"MEAN_ANOMALY":285.1996,"EPHEMERIS_TYPE":0,"CLASSIFICATION_TYPE":"U","NORAD_CAT_ID":16792,"ELEMENT_SET_NO":999,"REV_AT_EPOCH":13331,"BSTAR":4.6841543e-5,"MEAN_MOTION_DOT":4.32e-6,"MEAN_MOTION_DDOT":0},{"OBJECT_NAME":"SL-14 R/B","OBJECT_ID":"1986-055B","EPOCH":"2026-04-25T06:53:50.209152","MEAN_MOTION":14.85682295,"ECCENTRICITY":0.00189877,"INCLINATION":82.5186,"RA_OF_ASC_NODE":82.8597,"ARG_OF_PERICENTER":173.2186,"MEAN_ANOMALY":311.4666,"EPHEMERIS_TYPE":0,"CLASSIFICATION_TYPE":"U","NORAD_CAT_ID":16882,"ELEMENT_SET_NO":999,"REV_AT_EPOCH":12628,"BSTAR":4.8631975e-5,"MEAN_MOTION_DOT":4.47e-6,"MEAN_MOTION_DDOT":0},{"OBJECT_NAME":"AJISAI (EGS)","OBJECT_ID":"1986-061A","EPOCH":"2026-04-25T07:35:08.007360","MEAN_MOTION":12.44515967,"ECCENTRICITY":0.00114236,"INCLINATION":50.01,"RA_OF_ASC_NODE":309.9745,"ARG_OF_PERICENTER":46.579,"MEAN_ANOMALY":123.836,"EPHEMERIS_TYPE":0,"CLASSIFICATION_TYPE":"U","NORAD_CAT_ID":16908,"ELEMENT_SET_NO":999,"REV_AT_EPOCH":47380,"BSTAR":0.00012727734,"MEAN_MOTION_DOT":-7.9e-7,"MEAN_MOTION_DDOT":0},{"OBJECT_NAME":"SL-14 R/B","OBJECT_ID":"1987-024B","EPOCH":"2026-04-25T05:32:14.601120","MEAN_MOTION":14.86174812,"ECCENTRICITY":0.00197773,"INCLINATION":82.5297,"RA_OF_ASC_NODE":49.016,"ARG_OF_PERICENTER":105.2437,"MEAN_ANOMALY":255.0968,"EPHEMERIS_TYPE":0,"CLASSIFICATION_TYPE":"U","NORAD_CAT_ID":17567,"ELEMENT_SET_NO":999,"REV_AT_EPOCH":9504,"BSTAR":4.8346744e-5,"MEAN_MOTION_DOT":4.5e-6,"MEAN_MOTION_DDOT":0},{"OBJECT_NAME":"COSMOS 1833","OBJECT_ID":"1987-027A","EPOCH":"2026-04-25T07:09:59.329440","MEAN_MOTION":14.13034063,"ECCENTRICITY":0.00224159,"INCLINATION":70.9164,"RA_OF_ASC_NODE":228.0447,"ARG_OF_PERICENTER":142.3665,"MEAN_ANOMALY":217.903,"EPHEMERIS_TYPE":0,"CLASSIFICATION_TYPE":"U","NORAD_CAT_ID":17589,"ELEMENT_SET_NO":999,"REV_AT_EPOCH":1690,"BSTAR":-9.0377468e-5,"MEAN_MOTION_DOT":-2.17e-6,"MEAN_MOTION_DDOT":0},{"OBJECT_NAME":"SL-16 R/B","OBJECT_ID":"1987-027B","EPOCH":"2026-04-25T04:58:38.408736","MEAN_MOTION":14.17170777,"ECCENTRICITY":0.00035967,"INCLINATION":71.0027,"RA_OF_ASC_NODE":178.4706,"ARG_OF_PERICENTER":27.5347,"MEAN_ANOMALY":332.5967,"EPHEMERIS_TYPE":0,"CLASSIFICATION_TYPE":"U","NORAD_CAT_ID":17590,"ELEMENT_SET_NO":999,"REV_AT_EPOCH":2193,"BSTAR":0.00013906452,"MEAN_MOTION_DOT":2.33e-6,"MEAN_MOTION_DDOT":0},{"OBJECT_NAME":"SL-14 R/B","OBJECT_ID":"1987-038B","EPOCH":"2026-04-25T02:45:17.964864","MEAN_MOTION":14.85409312,"ECCENTRICITY":0.00195476,"INCLINATION":82.5003,"RA_OF_ASC_NODE":253.0595,"ARG_OF_PERICENTER":15.6744,"MEAN_ANOMALY":344.5073,"EPHEMERIS_TYPE":0,"CLASSIFICATION_TYPE":"U","NORAD_CAT_ID":17912,"ELEMENT_SET_NO":999,"REV_AT_EPOCH":8612,"BSTAR":3.9375189e-5,"MEAN_MOTION_DOT":3.64e-6,"MEAN_MOTION_DDOT":0},{"OBJECT_NAME":"COSMOS 1844","OBJECT_ID":"1987-041A","EPOCH":"2026-04-25T05:06:47.405088","MEAN_MOTION":14.14560819,"ECCENTRICITY":0.0032795,"INCLINATION":70.8982,"RA_OF_ASC_NODE":296.0462,"ARG_OF_PERICENTER":309.763,"MEAN_ANOMALY":50.0603,"EPHEMERIS_TYPE":0,"CLASSIFICATION_TYPE":"U","NORAD_CAT_ID":17973,"ELEMENT_SET_NO":999,"REV_AT_EPOCH":1016,"BSTAR":-0.00013514565,"MEAN_MOTION_DOT":-3.09e-6,"MEAN_MOTION_DDOT":0},{"OBJECT_NAME":"SL-14 R/B","OBJECT_ID":"1987-055B","EPOCH":"2026-04-25T00:23:18.860064","MEAN_MOTION":14.8566815,"ECCENTRICITY":0.00196719,"INCLINATION":82.4967,"RA_OF_ASC_NODE":305.3625,"ARG_OF_PERICENTER":217.0915,"MEAN_ANOMALY":142.8944,"EPHEMERIS_TYPE":0,"CLASSIFICATION_TYPE":"U","NORAD_CAT_ID":18153,"ELEMENT_SET_NO":999,"REV_AT_EPOCH":7681,"BSTAR":3.7902908e-5,"MEAN_MOTION_DOT":3.54e-6,"MEAN_MOTION_DDOT":0},{"OBJECT_NAME":"COSMOS 1867","OBJECT_ID":"1987-060A","EPOCH":"2026-04-25T05:57:41.039424","MEAN_MOTION":14.31509647,"ECCENTRICITY":0.00153951,"INCLINATION":65.0101,"RA_OF_ASC_NODE":176.3161,"ARG_OF_PERICENTER":280.9556,"MEAN_ANOMALY":78.9796,"EPHEMERIS_TYPE":0,"CLASSIFICATION_TYPE":"U","NORAD_CAT_ID":18187,"ELEMENT_SET_NO":999,"REV_AT_EPOCH":2660,"BSTAR":1.6033891e-5,"MEAN_MOTION_DOT":-5.8e-7,"MEAN_MOTION_DDOT":0},{"OBJECT_NAME":"SL-14 R/B","OBJECT_ID":"1988-001B","EPOCH":"2026-04-25T03:35:10.395168","MEAN_MOTION":14.85570014,"ECCENTRICITY":0.00196503,"INCLINATION":82.5124,"RA_OF_ASC_NODE":151.6725,"ARG_OF_PERICENTER":85.4341,"MEAN_ANOMALY":274.912,"EPHEMERIS_TYPE":0,"CLASSIFICATION_TYPE":"U","NORAD_CAT_ID":18749,"ELEMENT_SET_NO":999,"REV_AT_EPOCH":4892,"BSTAR":3.5189922e-5,"MEAN_MOTION_DOT":3.3e-6,"MEAN_MOTION_DDOT":0},{"OBJECT_NAME":"COSMOS 1933","OBJECT_ID":"1988-020A","EPOCH":"2026-04-25T06:08:49.217280","MEAN_MOTION":15.18387197,"ECCENTRICITY":0.000501,"INCLINATION":82.5151,"RA_OF_ASC_NODE":204.8323,"ARG_OF_PERICENTER":54.6631,"MEAN_ANOMALY":305.5071,"EPHEMERIS_TYPE":0,"CLASSIFICATION_TYPE":"U","NORAD_CAT_ID":18958,"ELEMENT_SET_NO":999,"REV_AT_EPOCH":5729,"BSTAR":0.00019734466,"MEAN_MOTION_DOT":4.087e-5,"MEAN_MOTION_DDOT":0},{"OBJECT_NAME":"SL-3 R/B","OBJECT_ID":"1988-032B","EPOCH":"2026-04-25T04:54:37.936800","MEAN_MOTION":15.20380913,"ECCENTRICITY":0.00275608,"INCLINATION":97.5238,"RA_OF_ASC_NODE":98.3267,"ARG_OF_PERICENTER":73.1681,"MEAN_ANOMALY":287.2573,"EPHEMERIS_TYPE":0,"CLASSIFICATION_TYPE":"U","NORAD_CAT_ID":19046,"ELEMENT_SET_NO":999,"REV_AT_EPOCH":5917,"BSTAR":0.00022651157,"MEAN_MOTION_DOT":4.911e-5,"MEAN_MOTION_DDOT":0},{"OBJECT_NAME":"SL-16 R/B","OBJECT_ID":"1988-039B","EPOCH":"2026-04-25T01:30:24.160896","MEAN_MOTION":14.19623328,"ECCENTRICITY":0.00240878,"INCLINATION":71.0153,"RA_OF_ASC_NODE":330.4936,"ARG_OF_PERICENTER":268.8823,"MEAN_ANOMALY":90.9542,"EPHEMERIS_TYPE":0,"CLASSIFICATION_TYPE":"U","NORAD_CAT_ID":19120,"ELEMENT_SET_NO":999,"REV_AT_EPOCH":96496,"BSTAR":9.4085103e-5,"MEAN_MOTION_DOT":1.51e-6,"MEAN_MOTION_DDOT":0},{"OBJECT_NAME":"COSMOS 1953","OBJECT_ID":"1988-050A","EPOCH":"2026-04-25T00:41:51.821664","MEAN_MOTION":15.29199818,"ECCENTRICITY":0.00095187,"INCLINATION":82.5052,"RA_OF_ASC_NODE":111.6044,"ARG_OF_PERICENTER":329.6633,"MEAN_ANOMALY":30.4055,"EPHEMERIS_TYPE":0,"CLASSIFICATION_TYPE":"U","NORAD_CAT_ID":19210,"ELEMENT_SET_NO":999,"REV_AT_EPOCH":4486,"BSTAR":0.00022550331,"MEAN_MOTION_DOT":6.428e-5,"MEAN_MOTION_DDOT":0}]
