SL-14 R/B               
1 16496U 86006B   26115.29265256  .00000689  00000+0  69984-4 0  9990
2 16496  82.5292 215.8787 0077824 117.7551 243.1586 14.86890644156134
COSMOS 1743             
1 16719U 86034A   26115.19391315  .00050761  00000+0  56615-3 0  9996
2 16719  82.5325  24.8759 0007545 105.3576 254.8517 15.62564213187502
SL-14 R/B               
1 16792U 86046B   26115.21423133  .00000432  00000+0  46842-4 0  9999
2 16792  82.4844  36.2227 0024646  75.1948 285.1996 14.85633831133318
SL-14 R/B               
1 16882U 86055B   26115.28738668  .00000447  00000+0  48632-4 0  9993
2 16882  82.5186  82.8597 0018987 173.2186 311.4666 14.85682295126283
AJISAI (EGS)            
1 16908U 86061A   26115.31606490 -.00000079  00000+0  12728-3 0  9998
2 16908  50.0100 309.9745 0011423  46.5790 123.8360 12.44515967473800
SL-14 R/B               
1 17567U 87024B   26115.23072455  .00000450  00000+0  48347-4 0  9998
2 17567  82.5297  49.0160 0019777 105.2437 255.0968 14.86174812 95049
COSMOS 1833             
1 17589U 87027A   26115.29860335 -.00000217  00000+0 -90377-4 0  9996
2 17589  70.9164 228.0447 0022415 142.3665 217.9030 14.13034063 16900
SL-16 R/B               
1 17590U 87027B   26115.20738899  .00000233  00000+0  13906-3 0  9996
2 17590  71.0027 178.4706 0003596  27.5347 332.5967 14.17170777 21937
SL-14 R/B               
1 17912U 87038B   26115.11479126  .00000364  00000+0  39375-4 0  9995
2 17912  82.5003 253.0595 0019547  15.6744 344.5073 14.85409312 86122
COSMOS 1844             
1 17973U 87041A   26115.21304867 -.00000309  00000+0 -13515-3 0  9994
2 17973  70.8982 296.0462 0032795 309.7630  50.0603 14.14560819 10167
SL-14 R/B               
1 18153U 87055B   26115.01619051  .00000354  00000+0  37903-4 0  9998
2 18153  82.4967 305.3625 0019671 217.0915 142.8944 14.85668150 76817
COSMOS 1867             
1 18187U 87060A   26115.24839166 -.00000058  00000+0  16034-4 0  9991
2 18187  65.0101 176.3161 0015395 280.9556  78.9796 14.31509647 26603
SL-14 R/B               
1 18749U 88001B   26115.14942587  .00000330  00000+0  35190-4 0  9998
2 18749  82.5124 151.6725 0019650  85.4341 274.9120 14.85570014 48929
COSMOS 1933             
1 18958U 88020A   26115.25612520  .00004087  00000+0  19734-3 0  9992
2 18958  82.5151 204.8323 0005010  54.6631 305.5071 15.18387197 57292
SL-3 R/B                
1 19046U 88032B   26115.20460575  .00004911  00000+0  22651-3 0  9998
2 19046  97.5238  98.3267 0027560  73.1681 287.2573 15.20380913 59175
SL-16 R/B               
1 19120U 88039B   26115.06277964  .00000151  00000+0  94085-4 0  9993
2 19120  71.0153 330.4936 0024087 268.8823  90.9542 14.19623328964960
COSMOS 1953             
1 19210U 88050A   26115.02907201  .00006428  00000+0  22550-3 0  9996
2 19210  82.5052 111.6044 0009518 329.6633  30.4055 15.29199818 44861
